     2.11           N: GPS NAV DATA                         RINEX VERSION / TYPE
teqc  2016Apr1      IGN                 20230902 14:30:02UTCPGM / RUN BY / DATE
    18                                                      LEAP SECONDS
    1.5832D-08  2.2352D-08 -1.1921D-07 -1.1921D-07          ION ALPHA
    1.1264D+05  8.1920D+04 -1.9661D+05 -6.5536D+04          ION BETA
    2.793967723846D-09 4.440892098501D-15    61440     2278 DELTA-UTC: A0,A1,T,W
                                                            END OF HEADER
 1 23  9  2 10  0  0.0 1.665810123086D-04-1.136868377216D-12 0.000000000000D+00
    9.100000000000D+01 2.221875000000D+01 3.810873023872D-09 1.222648680179D+00
    1.240521669388D-06 1.287772203796D-02 1.317076385021D-05 5.153640857697D+03
    5.544000000000D+05-2.477318048477D-07 6.392298491633D-01 1.247972249985D-07
    9.904679965334D-01 1.444687500000D+02 9.927848272101D-01-7.782467028133D-09
    5.643092200298D-11 1.000000000000D+00 2.277000000000D+03 0.000000000000D+00
    2.800000000000D+00 6.300000000000D+01 5.122274160385D-09 9.100000000000D+01
    5.472180000000D+05 4.000000000000D+00
19 23  9  2 10  0  0.0 3.659590147436D-04 5.229594535194D-12 0.000000000000D+00
    6.900000000000D+01-8.775000000000D+01 4.578047836925D-09-8.028636044117D-01
   -4.654750227928D-06 9.435094776563D-03 8.130446076393D-06 5.153642652512D+03
    5.544000000000D+05-7.450580596924D-09-3.200707727810D-01-6.519258022308D-08
    9.721178806803D-01 2.291875000000D+02 2.403003924702D+00-8.332489938795D-09
   -4.075169747177D-10 1.000000000000D+00 2.277000000000D+03 0.000000000000D+00
    2.000000000000D+00 0.000000000000D+00-1.536682248116D-08 6.900000000000D+01
    5.472180000000D+05 4.000000000000D+00
30 23  9  2 10  0  0.0-4.913499578834D-04 3.296918293927D-12 0.000000000000D+00
    1.800000000000D+01 3.556250000000D+01 4.619478134092D-09 4.506426174739D-01
    1.918524503708D-06 6.592232501134D-03 1.368299126625D-05 5.153782463074D+03
    5.544000000000D+05-2.048909664154D-08-2.514685615870D+00 2.253800630569D-07
    9.357924427343D-01 1.029062500000D+02-2.546499174541D+00-8.139624762329D-09
    1.550064566411D-10 1.000000000000D+00 2.277000000000D+03 0.000000000000D+00
    2.000000000000D+00 0.000000000000D+00 3.725290298462D-09 1.800000000000D+01
    5.472180000000D+05 4.000000000000D+00
 7 23  9  2 10  0  0.0 7.860548794270D-05-1.057287590811D-11 0.000000000000D+00
    9.000000000000D+01 2.809375000000D+01 4.410898017322D-09 5.357842229349D-01
    1.579523086548D-06 1.754463033285D-02 1.322850584984D-05 5.153732822418D+03
    5.544000000000D+05-3.427267074585D-07-2.519307480252D+00 1.788139343262D-07
    9.506663009645D-01 1.243750000000D+02-2.174794465307D+00-8.148910863418D-09
    1.785788670980D-11 1.000000000000D+00 2.277000000000D+03 0.000000000000D+00
    2.000000000000D+00 0.000000000000D+00-1.117587089539D-08 9.000000000000D+01
    5.472180000000D+05 4.000000000000D+00
24 23  9  2 10  0  0.0-3.078090958297D-04-1.102762325900D-11 0.000000000000D+00
    3.500000000000D+01-8.906250000000D+00 4.660194115791D-09 1.545300688525D+00
   -4.060566425323D-07 1.434626709670D-02 1.426413655281D-05 5.153652999878D+03
    5.544000000000D+05-2.775341272354D-07-2.611650874885D+00-2.607703208923D-08
    9.343396129381D-01 9.209375000000D+01 9.154396271407D-01-8.292488272565D-09
   -6.107397254753D-11 1.000000000000D+00 2.277000000000D+03 0.000000000000D+00
    2.000000000000D+00 0.000000000000D+00 2.328306436539D-09 3.500000000000D+01
    5.484720000000D+05 4.000000000000D+00
 6 23  9  2 10  0  0.0 5.571576766670D-04-6.139089236967D-12 0.000000000000D+00
    1.000000000000D+02 1.865625000000D+01 3.670152876599D-09 1.438181451173D+00
    9.648501873016D-07 2.723402343690D-03 1.392140984535D-05 5.153740379333D+03
    5.544000000000D+05 2.421438694000D-08 6.308969580650D-01-3.539025783539D-08
    9.896503131022D-01 1.221875000000D+02-7.960205271415D-01-7.572815438160D-09
    3.678724662220D-11 1.000000000000D+00 2.277000000000D+03 0.000000000000D+00
    2.000000000000D+00 0.000000000000D+00 3.725290298462D-09 1.000000000000D+02
    5.495280000000D+05 4.000000000000D+00
26 23  9  2 10  0  0.0 2.303891815245D-04-1.705302565824D-12 0.000000000000D+00
    8.100000000000D+01 7.181250000000D+01 5.419154300957D-09-1.055340273673D+00
    3.805384039879D-06 8.109440910630D-03 4.466623067856D-06 5.153743076324D+03
    5.544000000000D+05 1.490116119385D-07-1.545096947924D+00-4.284083843231D-08
    9.327047420049D-01 2.725000000000D+02 4.670341230116D-01-8.741792702183D-09
    4.946634618616D-10 1.000000000000D+00 2.277000000000D+03 0.000000000000D+00
    2.000000000000D+00 0.000000000000D+00 6.984919309616D-09 8.100000000000D+01
    5.472180000000D+05 4.000000000000D+00
16 23  9  2 10  0  0.0-4.599695093930D-04 5.343281372916D-12 0.000000000000D+00
    9.100000000000D+01 5.625000000000D+01 4.794485423848D-09-1.922219269977D+00
    2.650544047356D-06 1.334658858832D-02 3.607943654060D-06 5.153648473740D+03
    5.544000000000D+05 1.434236764908D-07-1.385872740831D+00-8.195638656616D-08
    9.637645145805D-01 3.046875000000D+02 7.934825646938D-01-8.299274269514D-09
    5.039495629507D-10 1.000000000000D+00 2.277000000000D+03 0.000000000000D+00
    2.000000000000D+00 0.000000000000D+00-1.024454832077D-08 9.100000000000D+01
    5.472180000000D+05 4.000000000000D+00
31 23  9  2 10  0  0.0-2.227835357189D-04-5.684341886081D-13 0.000000000000D+00
    8.700000000000D+01 2.759375000000D+01 4.279821128872D-09-3.159253969094D-01
    1.663342118263D-06 1.041756023187D-02 1.236610114574D-05 5.153625200272D+03
    5.544000000000D+05 1.098960638046D-07-2.498914762105D+00 1.210719347000D-07
    9.547132356155D-01 1.382500000000D+02 5.761848298509D-01-8.102480357972D-09
    2.121516941125D-10 1.000000000000D+00 2.277000000000D+03 0.000000000000D+00
    2.000000000000D+00 0.000000000000D+00-1.303851604462D-08 8.700000000000D+01
    5.472180000000D+05 4.000000000000D+00
18 23  9  2 10  0  0.0-4.036216996610D-04-1.284661266254D-11 0.000000000000D+00
    6.800000000000D+01 1.096875000000D+01 4.163387707524D-09 1.369731053425D+00
    7.674098014832D-07 3.677514381707D-03 1.250766217709D-05 5.153665088654D+03
    5.544000000000D+05 9.872019290924D-08 6.388004461341D-01-9.313225746155D-09
    9.743605867609D-01 1.442500000000D+02-3.121427780545D+00-7.863541833795D-09
    3.214419607765D-11 1.000000000000D+00 2.277000000000D+03 0.000000000000D+00
    2.000000000000D+00 0.000000000000D+00-8.381903171539D-09 6.800000000000D+01
    5.472180000000D+05 4.000000000000D+00
 9 23  9  2 10  0  0.0-7.064873352647D-05 1.011812855722D-11 0.000000000000D+00
    5.700000000000D+01-8.290625000000D+01 4.775913221670D-09-2.353286105184D+00
   -4.367902874947D-06 2.688164124265D-03 6.878748536110D-06 5.153549669266D+03
    5.544000000000D+05 1.490116119385D-08 2.692421263570D+00 3.911554813385D-08
    9.569214577911D-01 2.457812500000D+02 1.943880876452D+00-8.276059016792D-09
   -5.896674191577D-10 1.000000000000D+00 2.277000000000D+03 0.000000000000D+00
    2.000000000000D+00 0.000000000000D+00 9.313225746155D-10 5.700000000000D+01
    5.472480000000D+05 4.000000000000D+00
11 23  9  2 10  0  0.0-3.492543473840D-04-1.796252036002D-11 0.000000000000D+00
    9.400000000000D+01 2.140625000000D+01 4.195531903601D-09 2.804163551730D+00
    1.084059476852D-06 1.108626485802D-03 1.406669616699D-05 5.153596012115D+03
    5.544000000000D+05-3.725290298462D-08 6.699728516985D-01-9.313225746155D-09
    9.659157795036D-01 1.099375000000D+02-2.790932354472D+00-7.820325747957D-09
    1.289339420448D-10 1.000000000000D+00 2.277000000000D+03 0.000000000000D+00
    2.000000000000D+00 0.000000000000D+00-8.381903171539D-09 6.060000000000D+02
    5.496360000000D+05 4.000000000000D+00
13 23  9  2 10  0  0.0 5.676150321960D-04 4.661160346590D-12 0.000000000000D+00
    8.600000000000D+01-9.512500000000D+01 4.272320816450D-09 3.021621432220D+00
   -4.868954420090D-06 7.434051018210D-03 8.543953299520D-06 5.153670164110D+03
    5.544000000000D+05 9.126961231230D-08 2.854187119660D+00-7.450580596920D-09
    9.705594457540D-01 2.175000000000D+02 9.324789830240D-01-7.951402636410D-09
   -5.693094283090D-10 1.000000000000D+00 2.277000000000D+03 0.000000000000D+00
    2.000000000000D+00 0.000000000000D+00-1.164153218270D-08 8.600000000000D+01
    5.472180000000D+05 4.000000000000D+00
23 23  9  2 10  0  0.0 6.290758028626D-05 5.002220859751D-12 0.000000000000D+00
    1.240000000000D+02 5.168750000000D+01 4.651979487904D-09 3.612318908268D-01
    2.522021532059D-06 3.574680420570D-03 5.120411515236D-06 5.153670307159D+03
    5.544000000000D+05 9.313225746155D-09 1.638748028936D+00-1.490116119385D-08
    9.748990678879D-01 2.859062500000D+02-3.101619125126D+00-8.324632468642D-09
    2.064371703653D-10 1.000000000000D+00 2.277000000000D+03 0.000000000000D+00
    2.000000000000D+00 0.000000000000D+00-8.381903171539D-09 3.800000000000D+02
    5.472180000000D+05 4.000000000000D+00
12 23  9  2 10  0  0.0-4.200590774417D-04-4.433786671143D-12 0.000000000000D+00
    1.120000000000D+02 6.425000000000D+01 4.925205154564D-09-1.013352718094D-01
    3.090128302574D-06 8.563672075979D-03 4.751607775688D-06 5.153789567947D+03
    5.544000000000D+05-1.136213541031D-07-1.404050558581D+00 3.725290298462D-08
    9.641282911047D-01 2.946875000000D+02 1.391431658371D+00-8.627502227241D-09
    4.632335812523D-10 1.000000000000D+00 2.277000000000D+03 0.000000000000D+00
    2.000000000000D+00 0.000000000000D+00-1.257285475731D-08 1.120000000000D+02
    5.472180000000D+05 4.000000000000D+00
